      2.10          N: GNSS NAV DATA                        RINEX VERSION / TYPE
fic2rin                                 06/30/2019 00:20:07 PGM / RUN BY / DATE
                                                            END OF HEADER
24 19  6 29  8  0  0.0-6.811553612351e-05-5.684341886081e-13 0.000000000000e+00
    6.000000000000e+01 8.815625000000e+01 4.851987819054e-09 2.621666904435e+00
    4.472211003304e-06 8.352775359526e-03 1.122243702412e-05 5.153718162537e+03
    5.472000000000e+05-7.823109626770e-08-3.990165017818e-01-1.266598701477e-07
    9.386333169995e-01 1.494375000000e+02 6.040015895363e-01-7.966403261244e-09
   -8.714648714384e-11 1.000000000000e+00 2.059000000000e+03 0.000000000000e+00
    3.400000000000e+00 0.000000000000e+00 2.793967723846e-09 6.000000000000e+01
    5.400000000000e+05 4.000000000000e+00
14 19  6 29  8  0  0.0-7.390277460217e-05 1.705302565824e-12 0.000000000000e+00
    7.400000000000e+01-2.853125000000e+01 4.717696510996e-09-2.008974538448e+00
   -1.389533281326e-06 1.075683510862e-02 8.203089237213e-06 5.153713525772e+03
    5.472000000000e+05 1.471489667892e-07-1.315278462970e+00-1.862645149231e-09
    9.600651999863e-01 2.166250000000e+02-1.935077611841e+00-7.889971506126e-09
   -3.271564845236e-10 1.000000000000e+00 2.059000000000e+03 0.000000000000e+00
    2.400000000000e+00 0.000000000000e+00-9.778887033463e-09 7.400000000000e+01
    5.400000000000e+05 4.000000000000e+00
11 19  6 29  8  0  0.0-5.734534934163e-04 8.981260180008e-12 0.000000000000e+00
    6.800000000000e+01-9.228125000000e+01 5.240575433859e-09 1.625392103282e+00
   -4.975125193596e-06 1.670314383227e-02 7.964670658112e-06 5.153718791962e+03
    5.472000000000e+05 4.023313522339e-07 2.347884432319e+00-2.123415470123e-07
    9.099209149784e-01 1.974062500000e+02 1.900982411525e+00-8.354990876049e-09
   -2.142946405177e-11 1.000000000000e+00 2.059000000000e+03 0.000000000000e+00
    2.400000000000e+00 0.000000000000e+00-1.257285475731e-08 6.800000000000e+01
    5.400000000000e+05 4.000000000000e+00
17 19  6 29  8  0  0.0 7.983762770891e-05 6.480149750132e-12 0.000000000000e+00
    4.200000000000e+01-8.662500000000e+01 3.954450433019e-09-1.856103195017e+00
   -4.459172487259e-06 1.286572043318e-02 5.807727575302e-06 5.153759651184e+03
    5.472000000000e+05 2.775341272354e-07 1.801586616525e+00 1.769512891769e-07
    9.839575619648e-01 2.796562500000e+02-1.711621397113e+00-7.792824602424e-09
   -3.657295198168e-10 1.000000000000e+00 2.059000000000e+03 0.000000000000e+00
    2.400000000000e+00 0.000000000000e+00-1.117587089539e-08 4.200000000000e+01
    5.400000000000e+05 4.000000000000e+00
 9 19  6 29  8  0  0.0 3.817575052381e-04-7.958078640513e-12 0.000000000000e+00
    1.860000000000e+02-2.481250000000e+01 5.005565644758e-09-1.420752344655e+00
   -1.206994056702e-06 1.203520339914e-03 7.828697562218e-06 5.153646450043e+03
    5.472000000000e+05-4.284083843231e-08-1.408409501475e+00 4.470348358154e-08
    9.520475077544e-01 2.285000000000e+02 1.745108725709e+00-8.169268854267e-09
   -3.375140588153e-10 1.000000000000e+00 2.059000000000e+03 0.000000000000e+00
    3.400000000000e+00 0.000000000000e+00 1.396983861923e-09 1.860000000000e+02
    5.400000000000e+05 4.000000000000e+00
30 19  6 29  8  0  0.0-1.331362873316e-04-7.389644451905e-12 0.000000000000e+00
    9.400000000000e+01 8.878125000000e+01 4.939491463932e-09 1.731896455685e+00
    4.785135388374e-06 4.133788752370e-03 1.003779470921e-05 5.153795192719e+03
    5.472000000000e+05 7.450580596924e-09-3.048689297804e-01 1.154839992523e-07
    9.409621977325e-01 1.775625000000e+02-2.948978470710e+00-8.189269687382e-09
   -1.117903708034e-10 1.000000000000e+00 2.059000000000e+03 0.000000000000e+00
    2.400000000000e+00 0.000000000000e+00 3.725290298462e-09 9.400000000000e+01
    5.400000000000e+05 4.000000000000e+00
32 19  6 29  8  0  0.0-2.370029687881e-05 1.568878360558e-11 0.000000000000e+00
    5.400000000000e+01-2.953125000000e+01 4.933062624716e-09-1.105393374997e+00
   -1.443549990654e-06 3.171210410073e-03 7.858499884605e-06 5.153596246719e+03
    5.472000000000e+05 4.656612873077e-08-1.401553629523e+00-7.450580596924e-09
    9.562941965546e-01 2.248750000000e+02-2.483630545113e+00-8.132124449911e-09
   -3.571577341961e-10 1.000000000000e+00 2.059000000000e+03 0.000000000000e+00
    2.400000000000e+00 0.000000000000e+00 4.656612873077e-10 5.400000000000e+01
    5.400000000000e+05 4.000000000000e+00
31 19  6 29  8  0  0.0 2.781162038445e-05-2.614797267597e-12 0.000000000000e+00
    5.900000000000e+01 8.440625000000e+01 4.443042213399e-09 1.397093016749e+00
    4.682689905167e-06 9.205410722643e-03 1.090019941330e-05 5.153647079468e+03
    5.472000000000e+05 7.823109626770e-08-3.183715729511e-01 9.126961231232e-08
    9.600548673959e-01 1.658437500000e+02 8.785302903129e-03-7.956760002420e-09
   -2.235807416067e-10 1.000000000000e+00 2.059000000000e+03 0.000000000000e+00
    2.400000000000e+00 0.000000000000e+00-1.350417733192e-08 5.900000000000e+01
    5.400000000000e+05 4.000000000000e+00
29 19  6 29  8  0  0.0 1.644124276936e-04-9.663381206337e-12 0.000000000000e+00
    8.200000000000e+01-1.033437500000e+02 3.978737158944e-09-1.300901386850e+00
   -5.370005965233e-06 1.173487864435e-03 5.830079317093e-06 5.153734750748e+03
    5.472000000000e+05 3.911554813385e-08 1.812780821780e+00 3.539025783539e-08
    9.854407502370e-01 2.792187500000e+02 1.788025753604e+00-7.982118201548e-09
   -3.450143712334e-10 1.000000000000e+00 2.059000000000e+03 0.000000000000e+00
    2.400000000000e+00 0.000000000000e+00-9.778887033463e-09 8.200000000000e+01
    5.400000000000e+05 4.000000000000e+00
28 19  6 29  8  0  0.0 7.670246995986e-04-4.547473508865e-13 0.000000000000e+00
    4.600000000000e+01 4.721875000000e+01 4.444470844336e-09-9.426218548867e-01
    2.648681402206e-06 1.901494513731e-02 2.810731530190e-06 5.153701829910e+03
    5.472000000000e+05-2.831220626831e-07 7.905288072808e-01 5.029141902924e-08
    9.818210183864e-01 3.393750000000e+02-1.464124163060e+00-8.534998374084e-09
    2.821546100149e-11 1.000000000000e+00 2.059000000000e+03 0.000000000000e+00
    3.400000000000e+00 0.000000000000e+00-1.117587089539e-08 4.600000000000e+01
    5.400000000000e+05 4.000000000000e+00
 4 19  6 29  8  0  0.0 1.686792820692e-04 9.094947017729e-13 0.000000000000e+00
    2.120000000000e+02-2.428125000000e+01 4.806985944545e-09 1.389360597931e+00
   -1.201406121254e-06 4.372659604996e-04 8.076429367065e-06 5.153721570969e+03
    5.472000000000e+05-3.725290298462e-09-1.362946181276e+00 1.862645149231e-08
    9.594150499335e-01 2.264375000000e+02-1.399574918713e+00-8.043549331830e-09
   -3.478716331070e-10 1.000000000000e+00 2.059000000000e+03 0.000000000000e+00
    9.999999999999e+99 6.300000000000e+01-8.847564458847e-09 2.120000000000e+02
    5.400600000000e+05 4.000000000000e+00
 9 19  6 29  7 59 44.0 3.817579708993e-04-7.958078640513e-12 0.000000000000e+00
    2.600000000000e+01-2.481250000000e+01 5.005208487024e-09-1.423084578396e+00
   -1.206994056702e-06 1.203519059345e-03 7.828697562218e-06 5.153646448135e+03
    5.471840000000e+05-4.284083843231e-08-1.408409366886e+00 4.470348358154e-08
    9.520475209207e-01 2.285000000000e+02 1.745107176479e+00-8.169268854267e-09
   -3.375140588153e-10 1.000000000000e+00 2.059000000000e+03 0.000000000000e+00
    2.400000000000e+00 0.000000000000e+00 1.396983861923e-09 2.600000000000e+01
    5.405400000000e+05 4.000000000000e+00
 1 19  6 29  7 59 44.0-5.355291068554e-05-1.011812855722e-11 0.000000000000e+00
    7.000000000000e+00-4.896875000000e+01 3.748727578122e-09 2.341521903157e+00
   -2.566725015640e-06 9.006207808852e-03 1.054629683495e-05 5.153659677505e+03
    5.471840000000e+05-1.005828380585e-07 2.800766980718e+00-1.676380634308e-07
    9.763735488717e-01 1.846250000000e+02 7.258054332582e-01-7.609602684782e-09
    3.285851154604e-10 1.000000000000e+00 2.059000000000e+03 0.000000000000e+00
    2.400000000000e+00 0.000000000000e+00 5.587935447693e-09 7.000000000000e+00
    5.409000000000e+05 4.000000000000e+00
 1 19  6 29  9 59 44.0-5.362555384636e-05-1.011812855722e-11 0.000000000000e+00
    8.000000000000e+00-6.193750000000e+01 3.744084527578e-09-2.891440995643e+00
   -3.162771463394e-06 9.008153341711e-03 1.085922122002e-05 5.153656013489e+03
    5.543840000000e+05 6.519258022308e-08 2.800713111686e+00-8.009374141693e-08
    9.763764191169e-01 1.782500000000e+02 7.257675378283e-01-7.473882745787e-09
    3.121558596874e-10 1.000000000000e+00 2.059000000000e+03 0.000000000000e+00
    2.400000000000e+00 0.000000000000e+00 5.587935447693e-09 8.000000000000e+00
    5.472000000000e+05 4.000000000000e+00
 2 19  6 29 10  0  0.0-2.485299482942e-04-8.867573342286e-12 0.000000000000e+00
    5.500000000000e+01-4.987500000000e+01 4.143029716675e-09-2.611988582209e+00
   -2.501532435417e-06 1.889141183347e-02 1.068599522114e-05 5.153740457535e+03
    5.544000000000e+05 1.639127731323e-07 2.731322979251e+00-6.891787052155e-08
    9.554432127192e-01 1.685000000000e+02-1.732937479893e+00-7.461739382825e-09
    2.732256666600e-10 1.000000000000e+00 2.059000000000e+03 0.000000000000e+00
    2.400000000000e+00 0.000000000000e+00-2.048909664154e-08 5.500000000000e+01
    5.472000000000e+05 4.000000000000e+00
 9 19  6 29 10  0  0.0 3.817002288997e-04-7.958078640513e-12 0.000000000000e+00
    2.700000000000e+01-3.231250000000e+01 4.969492713604e-09-3.712332224395e-01
   -1.933425664902e-06 1.202841405757e-03 7.675960659981e-06 5.153644432068e+03
    5.544000000000e+05-2.980232238770e-08-1.408468641401e+00-5.587935447693e-09
    9.520450646812e-01 2.296875000000e+02 1.745791286712e+00-8.203913154484e-09
   -3.175132257003e-10 1.000000000000e+00 2.059000000000e+03 0.000000000000e+00
    2.400000000000e+00 0.000000000000e+00 1.396983861923e-09 2.700000000000e+01
    5.472000000000e+05 4.000000000000e+00
